[{"OBJECT_NAME":"SPACEEYE-T1","OBJECT_ID":"2025-052V","EPOCH":"2026-03-09T15:50:33.246528","MEAN_MOTION":15.21501707,"ECCENTRICITY":0.00061242,"INCLINATION":97.4063,"RA_OF_ASC_NODE":322.8058,"ARG_OF_PERICENTER":126.7741,"MEAN_ANOMALY":233.4058,"EPHEMERIS_TYPE":0,"CLASSIFICATION_TYPE":"U","NORAD_CAT_ID":63229,"ELEMENT_SET_NO":999,"REV_AT_EPOCH":5470,"BSTAR":0.00031827215,"MEAN_MOTION_DOT":7.097e-5,"MEAN_MOTION_DDOT":0},{"OBJECT_NAME":"KUIPER-00055","OBJECT_ID":"2025-134R","EPOCH":"2026-03-09T21:39:01.043424","MEAN_MOTION":15.20562207,"ECCENTRICITY":0.00015256,"INCLINATION":51.8904,"RA_OF_ASC_NODE":178.7702,"ARG_OF_PERICENTER":14.9809,"MEAN_ANOMALY":345.1216,"EPHEMERIS_TYPE":0,"CLASSIFICATION_TYPE":"U","NORAD_CAT_ID":64515,"ELEMENT_SET_NO":999,"REV_AT_EPOCH":4085,"BSTAR":0.00087666982,"MEAN_MOTION_DOT":0.00019176,"MEAN_MOTION_DDOT":0}]
