SPACEEYE-T1             
1 63229U 25052V   26068.66010702  .00007097  00000+0  31827-3 0  9996
2 63229  97.4063 322.8058 0006124 126.7741 233.4058 15.21501707 54702
KUIPER-00055            
1 64515U 25134R   26068.90209541  .00019176  00000+0  87667-3 0  9998
2 64515  51.8904 178.7702 0001526  14.9809 345.1216 15.20562207 40856
